[
  {
    "nombre": "Objeto 28812",
    "norad_cat_id": 28812,
    "tamano_caida_kg": null,
    "material_principal": null,
    "pais": null,
    "fecha": "2025-06-15",
    "inclinacion_orbita": 98.1,
    "lugar_caida": {"lat": -81.6, "lon": -50.5},
    "tle": [
      "1 28812U 05031D   25162.96679837  .01575682  19246-2  15042-2 0  9993",
      "2 28812  98.0521  77.4588 0006155 131.8881 358.7889 16.12302553 83405"
    ]
  }
]
